start=new Date('2022-02-12T00:00:00.000Z').valueOf();
sats=[{"EPOCH":"2022-02-11T12:34:16.745952","MEAN_ANOMALY":"282.3120","ECCENTRICITY":"0.00015320","PERIAPSIS":"546.073","OBJECT_NAME":"STARLINK-1863","TLE_LINE1":"1 47150U 20088AE  22042.52380493  .00009325  00000-0  64365-3 0  9995","LAUNCH_DATE":"2020-11-25","NORAD_CAT_ID":"47150","CLASSIFICATION_TYPE":"U","RCS_SIZE":"LARGE","EPHEMERIS_TYPE":"0","APOAPSIS":"548.195","OBJECT_ID":"2020-088AE","OBJECT_TYPE":"PAYLOAD","FILE":"3297735","MEAN_MOTION":"15.06426023","REF_FRAME":"TEME","SEMIMAJOR_AXIS":"6925.269","CENTER_NAME":"EARTH","TIME_SYSTEM":"UTC","ARG_OF_PERICENTER":"77.8040","INCLINATION":"53.0529","MEAN_MOTION_DDOT":"0.0000000000000","MEAN_MOTION_DOT":"0.00009325","SITE":"AFETR","TLE_LINE2":"2 47150  53.0529 127.7647 0001532  77.8040 282.3120 15.06426023 67835","RA_OF_ASC_NODE":"127.7647","DECAY_DATE":null,"PERIOD":"95.590","ELEMENT_SET_NO":"999","GP_ID":"195753538","MEAN_ELEMENT_THEORY":"SGP4","BSTAR":"0.00064365000000","REV_AT_EPOCH":"6783","COUNTRY_CODE":"US"},{"REF_FRAME":"TEME","MEAN_MOTION":"15.06426628","OBJECT_TYPE":"PAYLOAD","OBJECT_ID":"2020-088AF","FILE":"3297735","APOAPSIS":"548.128","RCS_SIZE":"LARGE","EPHEMERIS_TYPE":"0","NORAD_CAT_ID":"47151","CLASSIFICATION_TYPE":"U","LAUNCH_DATE":"2020-11-25","TLE_LINE1":"1 47151U 20088AF  22042.52288268  .00016996  00000-0  11563-2 0  9996","MEAN_ANOMALY":"289.9904","EPOCH":"2022-02-11T12:32:57.063552","PERIAPSIS":"546.135","OBJECT_NAME":"STARLINK-1864","ECCENTRICITY":"0.00014390","REV_AT_EPOCH":"6768","COUNTRY_CODE":"US","BSTAR":"0.00115630000000","MEAN_ELEMENT_THEORY":"SGP4","ELEMENT_SET_NO":"999","GP_ID":"195753789","RA_OF_ASC_NODE":"137.7741","PERIOD":"95.590","DECAY_DATE":null,"TLE_LINE2":"2 47151  53.0536 137.7741 0001439  70.1240 289.9904 15.06426628 67681","MEAN_MOTION_DOT":"0.00016996","SITE":"AFETR","MEAN_MOTION_DDOT":"0.0000000000000","INCLINATION":"53.0536","TIME_SYSTEM":"UTC","ARG_OF_PERICENTER":"70.1240","CENTER_NAME":"EARTH","SEMIMAJOR_AXIS":"6925.267"},{"INCLINATION":"53.0535","MEAN_MOTION_DDOT":"0.0000000000000","SITE":"AFETR","MEAN_MOTION_DOT":"0.00005834","TLE_LINE2":"2 47152  53.0535 136.9556 0001622  70.7207 289.3957 15.06419055 67968","CENTER_NAME":"EARTH","SEMIMAJOR_AXIS":"6925.290","ARG_OF_PERICENTER":"70.7207","TIME_SYSTEM":"UTC","BSTAR":"0.00040999000000","COUNTRY_CODE":"US","REV_AT_EPOCH":"6796","PERIOD":"95.591","DECAY_DATE":null,"RA_OF_ASC_NODE":"136.9556","GP_ID":"195761092","ELEMENT_SET_NO":"999","MEAN_ELEMENT_THEORY":"SGP4","TLE_LINE1":"1 47152U 20088AG  22042.70718029  .00005834  00000-0  40999-3 0  9995","LAUNCH_DATE":"2020-11-25","CLASSIFICATION_TYPE":"U","NORAD_CAT_ID":"47152","RCS_SIZE":"LARGE","EPHEMERIS_TYPE":"0","PERIAPSIS":"546.032","ECCENTRICITY":"0.00016220","OBJECT_NAME":"STARLINK-1866","MEAN_ANOMALY":"289.3957","EPOCH":"2022-02-11T16:58:20.377056","MEAN_MOTION":"15.06419055","REF_FRAME":"TEME","APOAPSIS":"548.278","FILE":"3297944","OBJECT_ID":"2020-088AG","OBJECT_TYPE":"PAYLOAD"},{"ARG_OF_PERICENTER":"71.1984","TIME_SYSTEM":"UTC","CENTER_NAME":"EARTH","SEMIMAJOR_AXIS":"6925.256","SITE":"AFETR","MEAN_MOTION_DOT":"0.00015808","TLE_LINE2":"2 47153  53.0527 141.7598 0001399  71.1984 288.9156 15.06430083 67902","INCLINATION":"53.0527","MEAN_MOTION_DDOT":"0.0000000000000","GP_ID":"195758576","ELEMENT_SET_NO":"999","MEAN_ELEMENT_THEORY":"SGP4","DECAY_DATE":null,"PERIOD":"95.590","RA_OF_ASC_NODE":"141.7598","REV_AT_EPOCH":"6790","COUNTRY_CODE":"US","BSTAR":"0.00107690000000","ECCENTRICITY":"0.00013990","PERIAPSIS":"546.153","OBJECT_NAME":"STARLINK-1867","MEAN_ANOMALY":"288.9156","EPOCH":"2022-02-11T17:57:20.928960","CLASSIFICATION_TYPE":"U","NORAD_CAT_ID":"47153","RCS_SIZE":"LARGE","EPHEMERIS_TYPE":"0","LAUNCH_DATE":"2020-11-25","TLE_LINE1":"1 47153U 20088AH  22042.74815890  .00015808  00000-0  10769-2 0  9997","FILE":"3297849","OBJECT_ID":"2020-088AH","OBJECT_TYPE":"PAYLOAD","APOAPSIS":"548.090","REF_FRAME":"TEME","MEAN_MOTION":"15.06430083"},{"ARG_OF_PERICENTER":"76.8283","TIME_SYSTEM":"UTC","CENTER_NAME":"EARTH","SEMIMAJOR_AXIS":"6925.289","SITE":"AFETR","MEAN_MOTION_DOT":"0.00011064","TLE_LINE2":"2 47154  53.0523 127.6657 0001384  76.8283 283.2861 15.06419381 67837","INCLINATION":"53.0523","MEAN_MOTION_DDOT":"0.0000000000000","GP_ID":"195753038","ELEMENT_SET_NO":"999","MEAN_ELEMENT_THEORY":"SGP4","PERIOD":"95.591","DECAY_DATE":null,"RA_OF_ASC_NODE":"127.6657","COUNTRY_CODE":"US","REV_AT_EPOCH":"6783","BSTAR":"0.00076008000000","ECCENTRICITY":"0.00013840","PERIAPSIS":"546.196","OBJECT_NAME":"STARLINK-1868","MEAN_ANOMALY":"283.2861","EPOCH":"2022-02-11T13:06:07.741152","CLASSIFICATION_TYPE":"U","NORAD_CAT_ID":"47154","RCS_SIZE":"LARGE","EPHEMERIS_TYPE":"0","TLE_LINE1":"1 47154U 20088AJ  22042.54592293  .00011064  00000-0  76008-3 0  9994","LAUNCH_DATE":"2020-11-25","FILE":"3297735","OBJECT_TYPE":"PAYLOAD","OBJECT_ID":"2020-088AJ","APOAPSIS":"548.113","REF_FRAME":"TEME","MEAN_MOTION":"15.06419381"},{"BSTAR":"0.00054288000000","COUNTRY_CODE":"US","REV_AT_EPOCH":"6755","PERIOD":"95.590","DECAY_DATE":null,"RA_OF_ASC_NODE":"147.4984","GP_ID":"195753289","ELEMENT_SET_NO":"999","MEAN_ELEMENT_THEORY":"SGP4","INCLINATION":"53.0544","MEAN_MOTION_DDOT":"0.0000000000000","SITE":"AFETR","MEAN_MOTION_DOT":"0.00007820","TLE_LINE2":"2 47155  53.0544 147.4984 0001748  56.5188 303.5968 15.06427547 67553","SEMIMAJOR_AXIS":"6925.264","CENTER_NAME":"EARTH","ARG_OF_PERICENTER":"56.5188","TIME_SYSTEM":"UTC","MEAN_MOTION":"15.06427547","REF_FRAME":"TEME","APOAPSIS":"548.340","FILE":"3297735","OBJECT_ID":"2020-088AK","OBJECT_TYPE":"PAYLOAD","LAUNCH_DATE":"2020-11-25","TLE_LINE1":"1 47155U 20088AK  22042.58092888  .00007820  00000-0  54288-3 0  9995","CLASSIFICATION_TYPE":"U","NORAD_CAT_ID":"47155","RCS_SIZE":"LARGE","EPHEMERIS_TYPE":"0","ECCENTRICITY":"0.00017480","PERIAPSIS":"545.919","OBJECT_NAME":"STARLINK-1869","MEAN_ANOMALY":"303.5968","EPOCH":"2022-02-11T13:56:32.255232"},{"ARG_OF_PERICENTER":"273.1400","TIME_SYSTEM":"UTC","SEMIMAJOR_AXIS":"6706.303","CENTER_NAME":"EARTH","TLE_LINE2":"2 47156  53.0544  26.3914 0008043 273.1400  86.8700 15.80803821 69531","SITE":"AFETR","MEAN_MOTION_DOT":"0.00163990","MEAN_MOTION_DDOT":"0.0000000000000","INCLINATION":"53.0544","MEAN_ELEMENT_THEORY":"SGP4","GP_ID":"195761124","ELEMENT_SET_NO":"999","DECAY_DATE":null,"PERIOD":"91.093","RA_OF_ASC_NODE":"26.3914","REV_AT_EPOCH":"6953","COUNTRY_CODE":"US","BSTAR":"0.00081971000000","ECCENTRICITY":"0.00080430","PERIAPSIS":"322.774","OBJECT_NAME":"STARLINK-1870","MEAN_ANOMALY":"86.8700","EPOCH":"2022-02-11T18:39:53.493408","RCS_SIZE":"LARGE","EPHEMERIS_TYPE":"0","CLASSIFICATION_TYPE":"U","NORAD_CAT_ID":"47156","TLE_LINE1":"1 47156U 20088AL  22042.77770247  .00163990  00000-0  81971-3 0  9999","LAUNCH_DATE":"2020-11-25","FILE":"3297953","OBJECT_TYPE":"PAYLOAD","OBJECT_ID":"2020-088AL","APOAPSIS":"333.562","REF_FRAME":"TEME","MEAN_MOTION":"15.80803821"},{"TLE_LINE1":"1 47157U 20088AM  22042.75140633  .00007059  00000-0  49199-3 0  9997","LAUNCH_DATE":"2020-11-25","CLASSIFICATION_TYPE":"U","NORAD_CAT_ID":"47157","RCS_SIZE":"LARGE","EPHEMERIS_TYPE":"0","OBJECT_NAME":"STARLINK-1871","PERIAPSIS":"546.047","ECCENTRICITY":"0.00015870","MEAN_ANOMALY":"296.6990","EPOCH":"2022-02-11T18:02:01.506912","MEAN_MOTION":"15.06422069","REF_FRAME":"TEME","APOAPSIS":"548.245","FILE":"3297953","OBJECT_TYPE":"PAYLOAD","OBJECT_ID":"2020-088AM","INCLINATION":"53.0522","MEAN_MOTION_DDOT":"0.0000000000000","SITE":"AFETR","MEAN_MOTION_DOT":"0.00007059","TLE_LINE2":"2 47157  53.0522 136.7353 0001587  63.4162 296.6990 15.06422069 67979","CENTER_NAME":"EARTH","SEMIMAJOR_AXIS":"6925.281","ARG_OF_PERICENTER":"63.4162","TIME_SYSTEM":"UTC","BSTAR":"0.00049199000000","COUNTRY_CODE":"US","REV_AT_EPOCH":"6797","PERIOD":"95.591","DECAY_DATE":null,"RA_OF_ASC_NODE":"136.7353","GP_ID":"195761285","ELEMENT_SET_NO":"999","MEAN_ELEMENT_THEORY":"SGP4"},{"OBJECT_TYPE":"PAYLOAD","OBJECT_ID":"2020-088AN","FILE":"3297735","APOAPSIS":"548.112","REF_FRAME":"TEME","MEAN_MOTION":"15.06426896","MEAN_ANOMALY":"289.0741","EPOCH":"2022-02-11T12:13:03.607392","PERIAPSIS":"546.151","OBJECT_NAME":"STARLINK-1873","ECCENTRICITY":"0.00014160","NORAD_CAT_ID":"47158","CLASSIFICATION_TYPE":"U","RCS_SIZE":"LARGE","EPHEMERIS_TYPE":"0","LAUNCH_DATE":"2020-11-25","TLE_LINE1":"1 47158U 20088AN  22042.50906953  .00010138  00000-0  69802-3 0  9991","ELEMENT_SET_NO":"999","GP_ID":"195753539","MEAN_ELEMENT_THEORY":"SGP4","RA_OF_ASC_NODE":"127.8202","PERIOD":"95.590","DECAY_DATE":null,"COUNTRY_CODE":"US","REV_AT_EPOCH":"6782","BSTAR":"0.00069802000000","TIME_SYSTEM":"UTC","ARG_OF_PERICENTER":"71.0401","SEMIMAJOR_AXIS":"6925.266","CENTER_NAME":"EARTH","MEAN_MOTION_DOT":"0.00010138","SITE":"AFETR","TLE_LINE2":"2 47158  53.0538 127.8202 0001416  71.0401 289.0741 15.06426896 67829","INCLINATION":"53.0538","MEAN_MOTION_DDOT":"0.0000000000000"},{"ARG_OF_PERICENTER":"318.8531","TIME_SYSTEM":"UTC","CENTER_NAME":"EARTH","SEMIMAJOR_AXIS":"6737.244","TLE_LINE2":"2 47159  53.0541 110.7761 0003583 318.8531  41.2215 15.69926742 68063","SITE":"AFETR","MEAN_MOTION_DOT":"0.00087451","MEAN_MOTION_DDOT":"0.0000000000000","INCLINATION":"53.0541","MEAN_ELEMENT_THEORY":"SGP4","GP_ID":"195753790","ELEMENT_SET_NO":"999","DECAY_DATE":null,"PERIOD":"91.724","RA_OF_ASC_NODE":"110.7761","COUNTRY_CODE":"US","REV_AT_EPOCH":"6806","BSTAR":"0.00071243000000","PERIAPSIS":"356.695","OBJECT_NAME":"STARLINK-1874","ECCENTRICITY":"0.00035830","MEAN_ANOMALY":"41.2215","EPOCH":"2022-02-11T11:22:47.728992","RCS_SIZE":"LARGE","EPHEMERIS_TYPE":"0","CLASSIFICATION_TYPE":"U","NORAD_CAT_ID":"47159","TLE_LINE1":"1 47159U 20088AP  22042.47416353  .00087451  00000-0  71243-3 0  9992","LAUNCH_DATE":"2020-11-25","FILE":"3297735","OBJECT_ID":"2020-088AP","OBJECT_TYPE":"PAYLOAD","APOAPSIS":"361.523","REF_FRAME":"TEME","MEAN_MOTION":"15.69926742"}];
